{
"type": "FeatureCollection",
"name": "communes",
"crs": { "type": "name", "properties": { "name": "urn:ogc:def:crs:OGC:1.3:CRS84" } },
"features": [
{ "type": "Feature", "properties": { "name": "Nord" }, "geometry": { "type": "Polygon", "coordinates": [ [ [ 6.16, 49.63 ], [ 6.16, 49.66 ], [ 6.1, 49.66 ], [ 6.1, 49.63 ], [ 6.16, 49.63 ] ] ] } },
{ "type": "Feature", "properties": { "name": "Centre" }, "geometry": { "type": "Polygon", "coordinates": [ [ [ 6.16, 49.6 ], [ 6.16, 49.63 ], [ 6.1, 49.63 ], [ 6.1, 49.6 ], [ 6.16, 49.6 ] ] ] } },
{ "type": "Feature", "properties": { "name": "Sud" }, "geometry": { "type": "Polygon", "coordinates": [ [ [ 6.16, 49.57 ], [ 6.16, 49.6 ], [ 6.1, 49.6 ], [ 6.1, 49.57 ], [ 6.16, 49.57 ] ] ] } }
]
}
