{
"type": "FeatureCollection",
"name": "schools",
"crs": { "type": "name", "properties": { "name": "urn:ogc:def:crs:OGC:1.3:CRS84" } },
"features": [
{ "type": "Feature", "properties": { "name": "School A" }, "geometry": { "type": "Point", "coordinates": [ 6.121, 49.641 ] } },
{ "type": "Feature", "properties": { "name": "School B" }, "geometry": { "type": "Point", "coordinates": [ 6.15, 49.59 ] } },
{ "type": "Feature", "properties": { "name": "School C" }, "geometry": { "type": "Point", "coordinates": [ 6.135, 49.612 ] } }
]
}
