{
"type": "FeatureCollection",
"name": "stops",
"crs": { "type": "name", "properties": { "name": "urn:ogc:def:crs:OGC:1.3:CRS84" } },
"features": [
{ "type": "Feature", "properties": { "name": "Stop 1" }, "geometry": { "type": "Point", "coordinates": [ 6.12, 49.64 ] } },
{ "type": "Feature", "properties": { "name": "Stop 2" }, "geometry": { "type": "Point", "coordinates": [ 6.14, 49.65 ] } },
{ "type": "Feature", "properties": { "name": "Stop 3" }, "geometry": { "type": "Point", "coordinates": [ 6.13, 49.61 ] } },
{ "type": "Feature", "properties": { "name": "Stop 4" }, "geometry": { "type": "Point", "coordinates": [ 6.15, 49.62 ] } },
{ "type": "Feature", "properties": { "name": "Stop 5" }, "geometry": { "type": "Point", "coordinates": [ 6.11, 49.615 ] } },
{ "type": "Feature", "properties": { "name": "Stop 6" }, "geometry": { "type": "Point", "coordinates": [ 6.13, 49.58 ] } }
]
}
