{
"type": "FeatureCollection",
"name": "schools",
"crs": { "type": "name", "properties": { "name": "urn:ogc:def:crs:OGC:1.3:CRS84" } },
"features": [
{ "type": "Feature", "properties": { "name": "Angsber Schoul", "level": "fondamental", "address": "16 Rue De Schoos, L-7410 Angelsberg" }, "geometry": { "type": "Point", "coordinates": [ 6.163295309, 49.763422943 ] } },
{ "type": "Feature", "properties": { "name": "Ecole Fondamentale de Bascharage", "level": "fondamental", "address": "24 Rue De L'Eau, L-4920 Bascharage" }, "geometry": { "type": "Point", "coordinates": [ 5.907326755, 49.567357497 ] } },
{ "type": "Feature", "properties": { "name": "Zentralschoul Bech-Maacher", "level": "fondamental", "address": "33 Rue Des Caves, L-5404 Bech-Kleinmacher" }, "geometry": { "type": "Point", "coordinates": [ 6.349450987, 49.52804984 ] } },
{ "type": "Feature", "properties": { "name": "Schoul Biekerech", "level": "fondamental", "address": "8 Dikrecherstrooss, L-8523 Beckerich" }, "geometry": { "type": "Point", "coordinates": [ 5.883242879, 49.7311395 ] } },
{ "type": "Feature", "properties": { "name": "Ecole Belvaux-Poste", "level": "fondamental", "address": "2 Rue De La Poste, L-4477 Belvaux" }, "geometry": { "type": "Point", "coordinates": [ 5.925326745, 49.50826174 ] } },
{ "type": "Feature", "properties": { "name": "Ecole Chemin Rouge", "level": "fondamental", "address": "61 Chemin Rouge, L-4480 Belvaux" }, "geometry": { "type": "Point", "coordinates": [ 5.941466842, 49.512988385 ] } },
{ "type": "Feature", "properties": { "name": "Kanner Campus Belval", "level": "fondamental", "address": "1 Passage Pablo Picasso, L-4368 Belvaux" }, "geometry": { "type": "Point", "coordinates": [ 5.934831468, 49.506944346 ] } },
{ "type": "Feature", "properties": { "name": "Renert", "level": "fondamental", "address": "1 Schoulstrooss, L-6831 Berbourg" }, "geometry": { "type": "Point", "coordinates": [ 6.398500978, 49.731197247 ] } },
{ "type": "Feature", "properties": { "name": "Ecole fondamentale de la commune de Berdorf", "level": "fondamental", "address": "4 Beim Maartbesch, L-6552 Berdorf" }, "geometry": { "type": "Point", "coordinates": [ 6.344482447, 49.826040364 ] } },
{ "type": "Feature", "properties": { "name": "Kannerhaus Jean", "level": "fondamental", "address": "9 Rue Du Château, L-6922 Berg (Betzdorf)" }, "geometry": { "type": "Point", "coordinates": [ 6.359268747, 49.68357664 ] } },
{ "type": "Feature", "properties": { "name": "École de Bertrange", "level": "fondamental", "address": "2 Beim Schlass, L-8058 Bertrange" }, "geometry": { "type": "Point", "coordinates": [ 6.049990855, 49.610371277 ] } },
{ "type": "Feature", "properties": { "name": "Schoul Préizerdaul", "level": "fondamental", "address": "3 Rue De L'Ecole, L-8606 Bettborn" }, "geometry": { "type": "Point", "coordinates": [ 5.938862418, 49.795798892 ] } },
{ "type": "Feature", "properties": { "name": "Reebou-Schoul", "level": "fondamental", "address": "43 Rue Marie-Therese, L-3257 Bettembourg" }, "geometry": { "type": "Point", "coordinates": [ 6.10893261, 49.517500581 ] } },
{ "type": "Feature", "properties": { "name": "Schoul am Duerf", "level": "fondamental", "address": "15 Rue De L'Ecole, L-3233 Bettembourg" }, "geometry": { "type": "Point", "coordinates": [ 6.097883655, 49.519667908 ] } },
{ "type": "Feature", "properties": { "name": "Ecole fondamentale de Bettendorf", "level": "fondamental", "address": "1 Rue Neuve, L-9353 Bettendorf" }, "geometry": { "type": "Point", "coordinates": [ 6.217213836, 49.875257524 ] } },
{ "type": "Feature", "properties": { "name": "Biisser Schoul", "level": "fondamental", "address": "1 Rte De Roost, L-7791 Bissen" }, "geometry": { "type": "Point", "coordinates": [ 6.068801816, 49.787331384 ] } },
{ "type": "Feature", "properties": { "name": "Ecole \" An der Wiss\"", "level": "fondamental", "address": "10-12 Schoulstrooss, L-6833 Biwer" }, "geometry": { "type": "Point", "coordinates": [ 6.379770602, 49.700721439 ] } },
{ "type": "Feature", "properties": { "name": "Schoul Mompech", "level": "fondamental", "address": "1 Um Salzwaasser, L-6661 Born" }, "geometry": { "type": "Point", "coordinates": [ 6.502939829, 49.7560251 ] } },
{ "type": "Feature", "properties": { "name": "Zentralschoul Buurschent", "level": "fondamental", "address": "19 Groussgaass, L-9140 Bourscheid" }, "geometry": { "type": "Point", "coordinates": [ 6.06154116, 49.90907259 ] } },
{ "type": "Feature", "properties": { "name": "Ecole Centrale Bous", "level": "fondamental", "address": "11-13 Rue De Luxembourg, L-5408 Bous" }, "geometry": { "type": "Point", "coordinates": [ 6.329965578, 49.555242266 ] } },
{ "type": "Feature", "properties": { "name": "Ecole Bridel-Kopstal", "level": "fondamental", "address": "24 Rue De L'Ecole, L-8128 Bridel" }, "geometry": { "type": "Point", "coordinates": [ 6.079881588, 49.657089806 ] } },
{ "type": "Feature", "properties": { "name": "Ecole fondamentale de la commune de Lenningen", "level": "fondamental", "address": "16 Rue De L'Ecole, L-5414 Canach" }, "geometry": { "type": "Point", "coordinates": [ 6.324216648, 49.610166784 ] } },
{ "type": "Feature", "properties": { "name": "Ecole fondamentale Campus scolaire Capellen", "level": "fondamental", "address": "45 Route D'Arlon, L-8310 Capellen" }, "geometry": { "type": "Point", "coordinates": [ 5.988725694, 49.644562179 ] } },
{ "type": "Feature", "properties": { "name": "Ecole fondamentale Consdorf", "level": "fondamental", "address": "2 Rue Buurgkapp, L-6211 Consdorf" }, "geometry": { "type": "Point", "coordinates": [ 6.336775031, 49.780154598 ] } },
{ "type": "Feature", "properties": { "name": "Centre scolaire et sportif \"Um Ewent\"", "level": "fondamental", "address": "40 Rue De Syren, L-5316 Contern" }, "geometry": { "type": "Point", "coordinates": [ 6.221593267, 49.578100313 ] } },
{ "type": "Feature", "properties": { "name": "Campus Scolaire de la commune de Dalheim", "level": "fondamental", "address": "20 Kierlingerstrooss, L-5685 Dalheim" }, "geometry": { "type": "Point", "coordinates": [ 6.26870186, 49.541990796 ] } },
{ "type": "Feature", "properties": { "name": "Ecole Fondamentale Differdange", "level": "fondamental", "address": "20 Rue Emile Mark, L-4620 Differdange" }, "geometry": { "type": "Point", "coordinates": [ 5.890611278, 49.522585705 ] } },
{ "type": "Feature", "properties": { "name": "Ecole Fondamentale Fousbann", "level": "fondamental", "address": "2 Rue John Castegnaro, L-4620 Differdange" }, "geometry": { "type": "Point", "coordinates": [ 5.900714846, 49.519757956 ] } },
{ "type": "Feature", "properties": { "name": "Ecole Fondamentale Niederkorn", "level": "fondamental", "address": "264 Av. De La Liberte, L-4602 Differdange" }, "geometry": { "type": "Point", "coordinates": [ 5.891885287, 49.535233235 ] } },
{ "type": "Feature", "properties": { "name": "Ecole Fondamentale Oberkorn", "level": "fondamental", "address": "12 Rue Boettelchen, L-4517 Differdange" }, "geometry": { "type": "Point", "coordinates": [ 5.896456037, 49.511700258 ] } },
{ "type": "Feature", "properties": { "name": "Ecole Fondamentale Woiwer", "level": "fondamental", "address": "2 Rue Neuwies, L-4635 Differdange" }, "geometry": { "type": "Point", "coordinates": [ 5.908361793, 49.519169056 ] } },
{ "type": "Feature", "properties": { "name": "EIDE site Differdange", "level": "fondamental", "address": "2 Rue Da La Montagne, L-4630 Differdange" }, "geometry": { "type": "Point", "coordinates": [ 5.886100863, 49.521594844 ] } },
{ "type": "Feature", "properties": { "name": "Ecole fondamentale Billek", "level": "fondamental", "address": "25 Schoulwee, L-5499 Dreiborn" }, "geometry": { "type": "Point", "coordinates": [ 6.398191225, 49.623270649 ] } },
{ "type": "Feature", "properties": { "name": "Ecole Boudersberg", "level": "fondamental", "address": "51 Rte De Boudersberg, L-3428 Dudelange" }, "geometry": { "type": "Point", "coordinates": [ 6.07121231, 49.487507447 ] } },
{ "type": "Feature", "properties": { "name": "Ecole Brill", "level": "fondamental", "address": "100 Rue Norbert Metz, L-3524 Dudelange" }, "geometry": { "type": "Point", "coordinates": [ 6.088747852, 49.487923465 ] } },
{ "type": "Feature", "properties": { "name": "Ecole Deich", "level": "fondamental", "address": "31 Rue Du Stade Jos Nosbaum, L-3532 Dudelange" }, "geometry": { "type": "Point", "coordinates": [ 6.084941029, 49.473484883 ] } },
{ "type": "Feature", "properties": { "name": "Ecole Gaffelt", "level": "fondamental", "address": "66 Rue Gaffelt, L-3480 Dudelange" }, "geometry": { "type": "Point", "coordinates": [ 6.080452561, 49.482098942 ] } },
{ "type": "Feature", "properties": { "name": "Ecole Lenkeschléi", "level": "fondamental", "address": "23 Rue Milly Steinmetz-Ludwig, L-3517 Dudelange" }, "geometry": { "type": "Point", "coordinates": [ 6.097452669, 49.480768032 ] } },
{ "type": "Feature", "properties": { "name": "Ecole Ribeschpont", "level": "fondamental", "address": "19 Rue Ribeschpont, L-3548 Dudelange" }, "geometry": { "type": "Point", "coordinates": [ 6.083286888, 49.493618554 ] } },
{ "type": "Feature", "properties": { "name": "Ecole Ehlerange", "level": "fondamental", "address": "15a Rue De Mondercange, L-4381 Ehlerange" }, "geometry": { "type": "Point", "coordinates": [ 5.967176152, 49.524054102 ] } },
{ "type": "Feature", "properties": { "name": "Ecole fondamentale de la Commune de Hobscheid", "level": "fondamental", "address": "19 Rue De Hobscheid, L-8473 Eischen" }, "geometry": { "type": "Point", "coordinates": [ 5.884355691, 49.689387682 ] } },
{ "type": "Feature", "properties": { "name": "Schoul \"Um Fräschepillchen\"", "level": "fondamental", "address": "27 Haaptstroos, L-8530 Ell" }, "geometry": { "type": "Point", "coordinates": [ 5.85300135, 49.762939327 ] } },
{ "type": "Feature", "properties": { "name": "Schoulzentrum IERPELDENG", "level": "fondamental", "address": "3 Rue Michel Kremer, L-9147 Erpeldange (Ettelbruck)" }, "geometry": { "type": "Point", "coordinates": [ 6.114775708, 49.862082945 ] } },
{ "type": "Feature", "properties": { "name": "Ecole fondamentale \"Ancien Lycée\"", "level": "fondamental", "address": "2 Montagne De L'École, L-4102 Esch-Sur-Alzette" }, "geometry": { "type": "Point", "coordinates": [ 5.985262366, 49.497537702 ] } },
{ "type": "Feature", "properties": { "name": "Ecole fondamentale Brill", "level": "fondamental", "address": "1 Pl. De La Resistance-Brill, L-4041 Esch-Sur-Alzette" }, "geometry": { "type": "Point", "coordinates": [ 5.977370962, 49.492284816 ] } },
{ "type": "Feature", "properties": { "name": "Ecole fondamentale Bruch", "level": "fondamental", "address": "23 Rue Michel Lentz, L-4209 Esch-Sur-Alzette" }, "geometry": { "type": "Point", "coordinates": [ 5.968850011, 49.502434788 ] } },
{ "type": "Feature", "properties": { "name": "Ecole fondamentale Dellhéicht", "level": "fondamental", "address": "1 Rue Dellheicht, L-4240 Esch-Sur-Alzette" }, "geometry": { "type": "Point", "coordinates": [ 5.982286289, 49.50016306 ] } },
{ "type": "Feature", "properties": { "name": "Ecole fondamentale Grand 'Rue", "level": "fondamental", "address": "19 Grand-Rue, L-4132 Esch-Sur-Alzette" }, "geometry": { "type": "Point", "coordinates": [ 5.982976895, 49.496765354 ] } },
{ "type": "Feature", "properties": { "name": "Ecole fondamentale Lallange", "level": "fondamental", "address": "8 Bd. Pierre Dupong, L-4086 Esch-Sur-Alzette" }, "geometry": { "type": "Point", "coordinates": [ 5.988872272, 49.510072942 ] } },
{ "type": "Feature", "properties": { "name": "EIDE site Esch s/Alzette", "level": "fondamental", "address": "91 Rue Victor Hugo, L-4141 Esch-Sur-Alzette" }, "geometry": { "type": "Point", "coordinates": [ 5.974812033, 49.495783716 ] } },
{ "type": "Feature", "properties": { "name": "Ecole de Fentange", "level": "fondamental", "address": "75 Rue De Bettembourg, L-5811 Fentange" }, "geometry": { "type": "Point", "coordinates": [ 6.152659185, 49.567761216 ] } },
{ "type": "Feature", "properties": { "name": "Ecole Garnich", "level": "fondamental", "address": "46 Rue De L'Ecole, L-8353 Garnich" }, "geometry": { "type": "Point", "coordinates": [ 5.94969029, 49.616280348 ] } },
{ "type": "Feature", "properties": { "name": "Schoul Géisdref", "level": "fondamental", "address": "1 Op Der Driicht, L-9653 Goesdorf" }, "geometry": { "type": "Point", "coordinates": [ 5.97088352, 49.920187112 ] } },
{ "type": "Feature", "properties": { "name": "Schoul Gonnereng", "level": "fondamental", "address": "1 Rue D'Ernster, L-6183 Gonderange" }, "geometry": { "type": "Point", "coordinates": [ 6.2487663, 49.692415222 ] } },
{ "type": "Feature", "properties": { "name": "Groussbusser Schoul", "level": "fondamental", "address": "1 Rue De Bastogne, L-9154 Grosbous" }, "geometry": { "type": "Point", "coordinates": [ 5.965088241, 49.827553444 ] } },
{ "type": "Feature", "properties": { "name": "Regionalschoul Uewersauer", "level": "fondamental", "address": "15 Rue Mgr. Fallize, L-9655 Harlange" }, "geometry": { "type": "Point", "coordinates": [ 5.787541205, 49.9321653 ] } },
{ "type": "Feature", "properties": { "name": "Schoul vun der Gemeng Hiefenech", "level": "fondamental", "address": "27 Op Der Strooss, L-7650 Heffingen" }, "geometry": { "type": "Point", "coordinates": [ 6.240320375, 49.769612702 ] } },
{ "type": "Feature", "properties": { "name": "Ecole de Hesperange", "level": "fondamental", "address": "9 Rue De Bettembourg, L-5810 Hesperange" }, "geometry": { "type": "Point", "coordinates": [ 6.154737556, 49.571706739 ] } },
{ "type": "Feature", "properties": { "name": "Schoul Helperknapp", "level": "fondamental", "address": "1 Rue De Tuntange, L-7435 Hollenfels" }, "geometry": { "type": "Point", "coordinates": [ 6.047775845, 49.712607764 ] } },
{ "type": "Feature", "properties": { "name": "Centre scolaire \"Parc Housen\"", "level": "fondamental", "address": "4b Parc, L-9836 Hosingen" }, "geometry": { "type": "Point", "coordinates": [ 6.098600464, 49.99389498 ] } },
{ "type": "Feature", "properties": { "name": "Ecole de Howald", "level": "fondamental", "address": "20 Av. Grand-Duc Jean, L-1842 Howald" }, "geometry": { "type": "Point", "coordinates": [ 6.141260328, 49.583676043 ] } },
{ "type": "Feature", "properties": { "name": "Ecole d'Itzig", "level": "fondamental", "address": "2 Rue De L'Ecole, L-5957 Itzig" }, "geometry": { "type": "Point", "coordinates": [ 6.169475978, 49.587738765 ] } },
{ "type": "Feature", "properties": { "name": "Lënster Lycée International School - section primaire", "level": "fondamental", "address": "2 Rue Victor Ferrand, L-6122 Junglinster" }, "geometry": { "type": "Point", "coordinates": [ 6.250391199, 49.700001118 ] } },
{ "type": "Feature", "properties": { "name": "Widdem", "level": "fondamental", "address": "4 Rue De L'Hôtel De Ville, L-3674 Kayl" }, "geometry": { "type": "Point", "coordinates": [ 6.037560761, 49.487390678 ] } },
{ "type": "Feature", "properties": { "name": "SCHOUL  KIELEN", "level": "fondamental", "address": "15 Rue De Mamer, L-8280 Kehlen" }, "geometry": { "type": "Point", "coordinates": [ 6.034722512, 49.667501952 ] } },
{ "type": "Feature", "properties": { "name": "Schoul Käerch", "level": "fondamental", "address": "1 Neie Wee, L-8385 Koerich" }, "geometry": { "type": "Point", "coordinates": [ 5.951499536, 49.667395911 ] } },
{ "type": "Feature", "properties": { "name": "Centre scolaire \"Raoul Follereau\" Koetschette", "level": "fondamental", "address": "1 Rue De La Paix, L-8821 Koetschette" }, "geometry": { "type": "Point", "coordinates": [ 5.838980893, 49.840312309 ] } },
{ "type": "Feature", "properties": { "name": "Schoul Lamadelaine", "level": "fondamental", "address": "17 Rue De La Providence, L-4885 Lamadelaine" }, "geometry": { "type": "Point", "coordinates": [ 5.855124202, 49.546709565 ] } },
{ "type": "Feature", "properties": { "name": "Fielser Schoul", "level": "fondamental", "address": "21 Rue De Medernach, L-7619 Larochette" }, "geometry": { "type": "Point", "coordinates": [ 6.219975118, 49.785940928 ] } },
{ "type": "Feature", "properties": { "name": "de Leudelange", "level": "fondamental", "address": "5 Place Des Martyrs, L-3361 Leudelange" }, "geometry": { "type": "Point", "coordinates": [ 6.062884227, 49.567014767 ] } },
{ "type": "Feature", "properties": { "name": "Campus scolaire Jos Wohlfart", "level": "fondamental", "address": "2 Rue Jean-Pierre Glaesener, L-7358 Lorentzweiler" }, "geometry": { "type": "Point", "coordinates": [ 6.146000371, 49.70211921 ] } },
{ "type": "Feature", "properties": { "name": "Ecole fondamentale Beggen", "level": "fondamental", "address": "191 Rue De Beggen, L-1221 Luxembourg" }, "geometry": { "type": "Point", "coordinates": [ 6.129050512, 49.643548479 ] } },
{ "type": "Feature", "properties": { "name": "Ecole fondamentale Belair-Diderich", "level": "fondamental", "address": "63 Av. Gaston Diderich, L-1420 Luxembourg" }, "geometry": { "type": "Point", "coordinates": [ 6.113190401, 49.610144581 ] } },
{ "type": "Feature", "properties": { "name": "Ecole fondamentale Belair-Kayser", "level": "fondamental", "address": "2 Rue Aloyse Kayser, L-1854 Luxembourg" }, "geometry": { "type": "Point", "coordinates": [ 6.107395913, 49.614402661 ] } },
{ "type": "Feature", "properties": { "name": "Ecole fondamentale Bonnevoie Gellé", "level": "fondamental", "address": "6 Rue Jean-Baptiste Gelle, L-1620 Luxembourg" }, "geometry": { "type": "Point", "coordinates": [ 6.140172383, 49.596191593 ] } },
{ "type": "Feature", "properties": { "name": "Ecole fondamentale Bonnevoie-Schlechter", "level": "fondamental", "address": "55 Rue Demy Schlechter, L-2521 Luxembourg" }, "geometry": { "type": "Point", "coordinates": [ 6.146474681, 49.595587512 ] } },
{ "type": "Feature", "properties": { "name": "Ecole fondamentale Bonnevoie-Verger", "level": "fondamental", "address": "54 Rue Du Verger, L-2665 Luxembourg" }, "geometry": { "type": "Point", "coordinates": [ 6.140983656, 49.60296334 ] } },
{ "type": "Feature", "properties": { "name": "Ecole fondamentale Cents", "level": "fondamental", "address": "49 Rue Leon Kauffman, L-1853 Luxembourg" }, "geometry": { "type": "Point", "coordinates": [ 6.163211315, 49.617498192 ] } },
{ "type": "Feature", "properties": { "name": "Ecole fondamentale Clausen", "level": "fondamental", "address": "39 Montée De Clausen, L-1343 Luxembourg" }, "geometry": { "type": "Point", "coordinates": [ 6.142854784, 49.613907465 ] } },
{ "type": "Feature", "properties": { "name": "Ecole fondamentale Dommeldange", "level": "fondamental", "address": "1 Rue Marguerite Mongenast-Servais, L-2161 Luxembourg" }, "geometry": { "type": "Point", "coordinates": [ 6.138857734, 49.635648143 ] } },
{ "type": "Feature", "properties": { "name": "Ecole fondamentale Eich", "level": "fondamental", "address": "151 Rue De Mühlenbach, L-2168 Luxembourg" }, "geometry": { "type": "Point", "coordinates": [ 6.128065434, 49.627186818 ] } },
{ "type": "Feature", "properties": { "name": "Ecole fondamentale Gare", "level": "fondamental", "address": "20 Rue Du Commerce, L-1351 Luxembourg" }, "geometry": { "type": "Point", "coordinates": [ 6.129518507, 49.600113698 ] } },
{ "type": "Feature", "properties": { "name": "Ecole fondamentale Gasperich", "level": "fondamental", "address": "17-19 Rue Verdi, L-2664 Luxembourg" }, "geometry": { "type": "Point", "coordinates": [ 6.122802808, 49.592612342 ] } },
{ "type": "Feature", "properties": { "name": "Ecole fondamentale Hamm", "level": "fondamental", "address": "159 Rue De Hamm, L-1713 Luxembourg" }, "geometry": { "type": "Point", "coordinates": [ 6.161652515, 49.609486988 ] } },
{ "type": "Feature", "properties": { "name": "Ecole fondamentale Hollerich", "level": "fondamental", "address": "21 Rue Antoine Meyer, L-2153 Luxembourg" }, "geometry": { "type": "Point", "coordinates": [ 6.118036568, 49.601599842 ] } },
{ "type": "Feature", "properties": { "name": "Ecole fondamentale Kirchberg", "level": "fondamental", "address": "1 Rue Anne Beffort, L-1276 Luxembourg" }, "geometry": { "type": "Point", "coordinates": [ 6.163575053, 49.636054068 ] } },
{ "type": "Feature", "properties": { "name": "Ecole fondamentale Limpertsberg", "level": "fondamental", "address": "1 Rue Batty Weber, L-2716 Luxembourg" }, "geometry": { "type": "Point", "coordinates": [ 6.114619515, 49.621258064 ] } },
{ "type": "Feature", "properties": { "name": "Ecole fondamentale Merl", "level": "fondamental", "address": "152 Rue De Merl, L-2146 Luxembourg" }, "geometry": { "type": "Point", "coordinates": [ 6.094476445, 49.60310775 ] } },
{ "type": "Feature", "properties": { "name": "Ecole fondamentale Rollingergrund", "level": "fondamental", "address": "239 Rue De Rollingergrund, L-2441 Luxembourg" }, "geometry": { "type": "Point", "coordinates": [ 6.105989218, 49.619609115 ] } },
{ "type": "Feature", "properties": { "name": "Eis Schoul", "level": "fondamental", "address": "47 Rue Des Maraîchers, L-2124 Luxembourg" }, "geometry": { "type": "Point", "coordinates": [ 6.146168183, 49.627522212 ] } },
{ "type": "Feature", "properties": { "name": "EPND", "level": "fondamental", "address": "4 Rue Marguerite De Busbach, L-1269 Luxembourg" }, "geometry": { "type": "Point", "coordinates": [ 6.150128204, 49.61863794 ] } },
{ "type": "Feature", "properties": { "name": "International School Michel Lucius", "level": "fondamental", "address": "1 Avenue Joseph Sax, L-2515 Luxembourg" }, "geometry": { "type": "Point", "coordinates": [ 6.118148351, 49.624234745 ] } },
{ "type": "Feature", "properties": { "name": "Aerenzdallschull", "level": "fondamental", "address": "26 Rue De Savelborn, L-7660 Medernach" }, "geometry": { "type": "Point", "coordinates": [ 6.217368622, 49.809734244 ] } },
{ "type": "Feature", "properties": { "name": "Ecole de Mersch", "level": "fondamental", "address": "11 Rue De La Piscine, L-7572 Mersch" }, "geometry": { "type": "Point", "coordinates": [ 6.091956789, 49.74240963 ] } },
{ "type": "Feature", "properties": { "name": "Ecole fondamentale Pierre Frieden", "level": "fondamental", "address": "5 Rue Du Parc, L-6684 Mertert" }, "geometry": { "type": "Point", "coordinates": [ 6.479796901, 49.700992555 ] } },
{ "type": "Feature", "properties": { "name": "Mäerzeger Schoul", "level": "fondamental", "address": "22 Rue Principale, L-9168 Mertzig" }, "geometry": { "type": "Point", "coordinates": [ 6.00597597, 49.833586554 ] } },
{ "type": "Feature", "properties": { "name": "Ecole de Mondercange", "level": "fondamental", "address": "16 Rue Arthur Thinnes, L-3919 Mondercange" }, "geometry": { "type": "Point", "coordinates": [ 5.985905127, 49.529181084 ] } },
{ "type": "Feature", "properties": { "name": "Complexe scolaire Grande-Duchesse Maria Teresa", "level": "fondamental", "address": "1-3 Av. Des Villes Jumelees, L-5612 Mondorf-Les-Bains" }, "geometry": { "type": "Point", "coordinates": [ 6.27304945, 49.505453367 ] } },
{ "type": "Feature", "properties": { "name": "Ecole internationale vu Munneref", "level": "fondamental", "address": "2 Route De Burmerange, L-5659 Mondorf-Les-Bains" }, "geometry": { "type": "Point", "coordinates": [ 6.284667342, 49.500764114 ] } },
{ "type": "Feature", "properties": { "name": "Campus Schoul an der Dällt", "level": "fondamental", "address": "185 Rue Principale, L-5366 Munsbach" }, "geometry": { "type": "Point", "coordinates": [ 6.266536105, 49.629920974 ] } },
{ "type": "Feature", "properties": { "name": "Am Kuebebongert", "level": "fondamental", "address": "1 Bongerterwee, L-9175 Niederfeulen" }, "geometry": { "type": "Point", "coordinates": [ 6.044997194, 49.854658765 ] } },
{ "type": "Feature", "properties": { "name": "Sonneschoul", "level": "fondamental", "address": "45 Rue De L'Ecole, L-3385 Noertzange" }, "geometry": { "type": "Point", "coordinates": [ 6.052480186, 49.507317157 ] } },
{ "type": "Feature", "properties": { "name": "Schoulcampus Noumer", "level": "fondamental", "address": "31-33 Rue Principale, L-7465 Nommern" }, "geometry": { "type": "Point", "coordinates": [ 6.173566354, 49.795054461 ] } },
{ "type": "Feature", "properties": { "name": "Ecole Kleesenberg", "level": "fondamental", "address": "27 Rue De La Montee, L-4981 Reckange-Sur-Mess" }, "geometry": { "type": "Point", "coordinates": [ 6.0101419, 49.562311716 ] } },
{ "type": "Feature", "properties": { "name": "Schoul Réiden", "level": "fondamental", "address": "1 All. Des Tilleuls, L-8508 Redange-Sur-Attert" }, "geometry": { "type": "Point", "coordinates": [ 5.888503631, 49.764937782 ] } },
{ "type": "Feature", "properties": { "name": "Ecole Fondamentale Reisdorf", "level": "fondamental", "address": "4 Pl. De L'Eglise, L-9391 Reisdorf" }, "geometry": { "type": "Point", "coordinates": [ 6.264413395, 49.866833847 ] } },
{ "type": "Feature", "properties": { "name": "Zentralschoul Remerschen", "level": "fondamental", "address": "25 Waistrooss, L-5440 Remerschen" }, "geometry": { "type": "Point", "coordinates": [ 6.35315868, 49.492254823 ] } },
{ "type": "Feature", "properties": { "name": "Ecole de la Ville de Remich", "level": "fondamental", "address": "8 Rue Des Champs, L-5501 Remich" }, "geometry": { "type": "Point", "coordinates": [ 6.366000879, 49.547204347 ] } },
{ "type": "Feature", "properties": { "name": "Schoul Rodange", "level": "fondamental", "address": "1C Rue De L'Ecole, L-4813 Rodange" }, "geometry": { "type": "Point", "coordinates": [ 5.841088519, 49.545301313 ] } },
{ "type": "Feature", "properties": { "name": "Schull Rouspert", "level": "fondamental", "address": "10 Rue Henri Tudor, L-6582 Rosport" }, "geometry": { "type": "Point", "coordinates": [ 6.500351389, 49.805192866 ] } },
{ "type": "Feature", "properties": { "name": "Ecole fondamentale Sauerwiesen Rumelange", "level": "fondamental", "address": "2 Rue Émile Lux, L-3738 Rumelange" }, "geometry": { "type": "Point", "coordinates": [ 6.031809805, 49.462944936 ] } },
{ "type": "Feature", "properties": { "name": "Sëller Schoul", "level": "fondamental", "address": "8 Um Sand, L-7471 Saeul" }, "geometry": { "type": "Point", "coordinates": [ 5.98481608, 49.725902033 ] } },
{ "type": "Feature", "properties": { "name": "Zentralschoul", "level": "fondamental", "address": "6 Rue Jean-Baptiste Weicker, L-5255 Sandweiler" }, "geometry": { "type": "Point", "coordinates": [ 6.216400427, 49.61605056 ] } },
{ "type": "Feature", "properties": { "name": "Ecole Sanem", "level": "fondamental", "address": "33-39 Rue De Niederkorn, L-4990 Sanem" }, "geometry": { "type": "Point", "coordinates": [ 5.927100177, 49.546870994 ] } },
{ "type": "Feature", "properties": { "name": "Schierener Schoul", "level": "fondamental", "address": "10 Cite St. Blaise, L-9117 Schieren" }, "geometry": { "type": "Point", "coordinates": [ 6.099387928, 49.828778556 ] } },
{ "type": "Feature", "properties": { "name": "Ecole Centrale de Schouweiler", "level": "fondamental", "address": "3 Rue Des Ecoles, L-4994 Schouweiler" }, "geometry": { "type": "Point", "coordinates": [ 5.960816766, 49.583230517 ] } },
{ "type": "Feature", "properties": { "name": "Simmer Schoul", "level": "fondamental", "address": "31 Rue De Mersch, L-8395 Septfontaines" }, "geometry": { "type": "Point", "coordinates": [ 5.964671365, 49.701678691 ] } },
{ "type": "Feature", "properties": { "name": "Ecole Scheuerhof", "level": "fondamental", "address": "25 Scheierhaffstrooss, L-4492 Soleuvre" }, "geometry": { "type": "Point", "coordinates": [ 5.927686784, 49.518930146 ] } },
{ "type": "Feature", "properties": { "name": "Ecole Soleuvre 2000", "level": "fondamental", "address": "45 Rue De Belvaux, L-4418 Soleuvre" }, "geometry": { "type": "Point", "coordinates": [ 5.937907372, 49.520618799 ] } },
{ "type": "Feature", "properties": { "name": "Ecole de la Commune de Stadtbredimus", "level": "fondamental", "address": "1 Pl. Batty Weber, L-5451 Stadtbredimus" }, "geometry": { "type": "Point", "coordinates": [ 6.363693871, 49.564169208 ] } },
{ "type": "Feature", "properties": { "name": "Ecole Fondamentale de la Commune de Steinsel", "level": "fondamental", "address": "20 Rue Des Vergers, L-7339 Steinsel" }, "geometry": { "type": "Point", "coordinates": [ 6.123599287, 49.679158556 ] } },
{ "type": "Feature", "properties": { "name": "Ecole fondamentale de Strassen", "level": "fondamental", "address": "3 Pl. Des Martyrs, L-8032 Strassen" }, "geometry": { "type": "Point", "coordinates": [ 6.07047235, 49.617830439 ] } },
{ "type": "Feature", "properties": { "name": "Schoul \"am Brill\" Tandel", "level": "fondamental", "address": "4 Veianerstrooss, L-9395 Tandel" }, "geometry": { "type": "Point", "coordinates": [ 6.182059515, 49.892982445 ] } },
{ "type": "Feature", "properties": { "name": "Ecole fondamentale de Trintange", "level": "fondamental", "address": "25 Rue De L'Eglise, L-5460 Trintange" }, "geometry": { "type": "Point", "coordinates": [ 6.279896866, 49.573208752 ] } },
{ "type": "Feature", "properties": { "name": "Ëlwenter Schull", "level": "fondamental", "address": "3 Mte. De L'Ecole, L-9908 Troisvierges" }, "geometry": { "type": "Point", "coordinates": [ 5.998855684, 50.121229002 ] } },
{ "type": "Feature", "properties": { "name": "Schoul Useldeng", "level": "fondamental", "address": "41 Rue De Schandel, L-8707 Useldange" }, "geometry": { "type": "Point", "coordinates": [ 5.976242941, 49.774892344 ] } },
{ "type": "Feature", "properties": { "name": "Veiner Schull", "level": "fondamental", "address": "5 Rue Victor Hugo, L-9414 Vianden" }, "geometry": { "type": "Point", "coordinates": [ 6.206960921, 49.934746713 ] } },
{ "type": "Feature", "properties": { "name": "Schoul Um Sonnegäertchen", "level": "fondamental", "address": "32 Rue Principale, L-9190 Vichten" }, "geometry": { "type": "Point", "coordinates": [ 6.000179726, 49.802535674 ] } },
{ "type": "Feature", "properties": { "name": "Schoul Gemeng Wahl", "level": "fondamental", "address": "3 Waler Strooss, L-8818 Wahl" }, "geometry": { "type": "Point", "coordinates": [ 5.908262009, 49.847020607 ] } },
{ "type": "Feature", "properties": { "name": "Michel-Rodange-Schoul Waldbëlleg", "level": "fondamental", "address": "5 A Kilker, L-7680 Waldbillig" }, "geometry": { "type": "Point", "coordinates": [ 6.277486311, 49.796054257 ] } },
{ "type": "Feature", "properties": { "name": "Ecole fondamentale Weiler-la-Tour", "level": "fondamental", "address": "12 Rue De Luxembourg, L-5772 Weiler-La-Tour" }, "geometry": { "type": "Point", "coordinates": [ 6.199217816, 49.547364276 ] } },
{ "type": "Feature", "properties": { "name": "Wämper Schull", "level": "fondamental", "address": "8 Am Eelerich, L-9991 Weiswampach" }, "geometry": { "type": "Point", "coordinates": [ 6.073489436, 50.140506614 ] } },
{ "type": "Feature", "properties": { "name": "Reenert", "level": "fondamental", "address": "11 Avenue Nicolas Kreins, L-9536 Wiltz" }, "geometry": { "type": "Point", "coordinates": [ 5.932302217, 49.96750846 ] } },
{ "type": "Feature", "properties": { "name": "Villa Millermoaler", "level": "fondamental", "address": "9a Avenue Nicolas Kreins, L-9536 Wiltz" }, "geometry": { "type": "Point", "coordinates": [ 5.932169235, 49.968119151 ] } },
{ "type": "Feature", "properties": { "name": "Ecole SCHOULKAUZ", "level": "fondamental", "address": "17-19 Cite A Millefeld, L-9776 Wilwerwiltz" }, "geometry": { "type": "Point", "coordinates": [ 5.99924729, 49.993005945 ] } },
{ "type": "Feature", "properties": { "name": "Schoul um Kiemel", "level": "fondamental", "address": "86 Maison, L-9780 Wincrange" }, "geometry": { "type": "Point", "coordinates": [ 5.91635011, 50.054590708 ] } },
{ "type": "Feature", "properties": { "name": "Atert-Lycée Réiden", "level": "lycee", "address": "1, rue du Lycée, L-8508 Redange-sur-Attert" }, "geometry": { "type": "Point", "coordinates": [ 5.898405784, 49.770294051 ] } },
{ "type": "Feature", "properties": { "name": "Athénée de Luxembourg", "level": "lycee", "address": "24, bd Pierre Dupong, L-1430 Luxembourg" }, "geometry": { "type": "Point", "coordinates": [ 6.111026247, 49.603849344 ] } },
{ "type": "Feature", "properties": { "name": "Ecole de Commerce et de Gestion", "level": "lycee", "address": "21, rue Marguerite de Brabant, L-1254 Luxembourg" }, "geometry": { "type": "Point", "coordinates": [ 6.108757053, 49.602555738 ] } },
{ "type": "Feature", "properties": { "name": "Ecole d'Hôtellerie et de Tourisme de Luxembourg", "level": "lycee", "address": "19, Rue Joseph Merten, L-9257 Diekirch" }, "geometry": { "type": "Point", "coordinates": [ 6.170290702, 49.864070191 ] } },
{ "type": "Feature", "properties": { "name": "Ecole Internationale de Differdange", "level": "lycee", "address": "2, rue de la  Montagne, L-4630 Differdange" }, "geometry": { "type": "Point", "coordinates": [ 5.886100863, 49.521594844 ] } },
{ "type": "Feature", "properties": { "name": "Ecole internationale de Mondorf-les-Bains", "level": "lycee", "address": "2, route de Burmerange, L-5659 Mondorf-les-Bains" }, "geometry": { "type": "Point", "coordinates": [ 6.284667342, 49.500764114 ] } },
{ "type": "Feature", "properties": { "name": "Ecole Privée Fieldgen", "level": "lycee", "address": "21, rue d'Anvers, L-1130 Luxembourg" }, "geometry": { "type": "Point", "coordinates": [ 6.129481367, 49.602941833 ] } },
{ "type": "Feature", "properties": { "name": "Ecole Privée Marie-Consolatrice", "level": "lycee", "address": "101, rue de Luxembourg, L-4221 Esch/Alzette" }, "geometry": { "type": "Point", "coordinates": [ 5.986450295, 49.501038892 ] } },
{ "type": "Feature", "properties": { "name": "Ecole Privée Notre-Dame Sainte-Sophie", "level": "lycee", "address": "4, rue Marguerite de Busbach, L-1269 Luxembourg" }, "geometry": { "type": "Point", "coordinates": [ 6.150128204, 49.61863794 ] } },
{ "type": "Feature", "properties": { "name": "Ecole Privée Sainte-Anne", "level": "lycee", "address": "108, Grand-rue, L-9051 Ettelbruck" }, "geometry": { "type": "Point", "coordinates": [ 6.102754081, 49.847267177 ] } },
{ "type": "Feature", "properties": { "name": "Lënster Lycée International School", "level": "lycee", "address": "2, rue Victor Ferrant, L-6122 Junglinster" }, "geometry": { "type": "Point", "coordinates": [ 6.250391199, 49.700001118 ] } },
{ "type": "Feature", "properties": { "name": "Lycée Aline Mayrisch", "level": "lycee", "address": "38, bd Pierre Dupong, L-1430 Luxembourg" }, "geometry": { "type": "Point", "coordinates": [ 6.111878162, 49.600521236 ] } },
{ "type": "Feature", "properties": { "name": "Lycée Bel-Val", "level": "lycee", "address": "100, avenue du Blues, L-4368 Belvaux" }, "geometry": { "type": "Point", "coordinates": [ 5.93494065, 49.503897453 ] } },
{ "type": "Feature", "properties": { "name": "Lycée classique de Diekirch", "level": "lycee", "address": "32, avenue de la Gare, L-9233 Diekirch" }, "geometry": { "type": "Point", "coordinates": [ 6.156697323, 49.865792631 ] } },
{ "type": "Feature", "properties": { "name": "Lycée classique d'Echternach", "level": "lycee", "address": "1, Rue du Pont, L-6471 Echternach" }, "geometry": { "type": "Point", "coordinates": [ 6.422756413, 49.813472071 ] } },
{ "type": "Feature", "properties": { "name": "Lycée de Garçons Esch-sur-Alzette", "level": "lycee", "address": "71, rue du Fossé, L-4123 Esch/Alzette" }, "geometry": { "type": "Point", "coordinates": [ 5.983213015, 49.499013156 ] } },
{ "type": "Feature", "properties": { "name": "Lycée des Arts et Métiers", "level": "lycee", "address": "19, rue Guillaume Schneider, L-2522 Luxembourg" }, "geometry": { "type": "Point", "coordinates": [ 6.126205418, 49.621465421 ] } },
{ "type": "Feature", "properties": { "name": "Lycée des Arts et Métiers / Site Dommeldange", "level": "lycee", "address": "20, rue Nicolas Hein, L-1721 Luxembourg" }, "geometry": { "type": "Point", "coordinates": [ 6.137595094, 49.636815752 ] } },
{ "type": "Feature", "properties": { "name": "Lycée Edward Steichen", "level": "lycee", "address": "1, Rue Edward Steichen, L-9707 Clervaux" }, "geometry": { "type": "Point", "coordinates": [ 6.0230056, 50.06417204 ] } },
{ "type": "Feature", "properties": { "name": "Lycée Ermesinde", "level": "lycee", "address": "45, rue de la Gare, L-7590 Mersch" }, "geometry": { "type": "Point", "coordinates": [ 6.111967037, 49.756159866 ] } },
{ "type": "Feature", "properties": { "name": "Lycée Guillaume Kroll", "level": "lycee", "address": "32, rue Henri Koch,  L-4354 Esch/Alzette" }, "geometry": { "type": "Point", "coordinates": [ 5.965126801, 49.509624216 ] } },
{ "type": "Feature", "properties": { "name": "Lycée Hubert Clément Esch-sur-Alzette", "level": "lycee", "address": "2, rue Général Patton, L-4277 Esch/Alzette" }, "geometry": { "type": "Point", "coordinates": [ 5.976997217, 49.502461922 ] } },
{ "type": "Feature", "properties": { "name": "Lycée Josy Barthel", "level": "lycee", "address": "2, rue Gaston Thorn, L-8268 Mamer" }, "geometry": { "type": "Point", "coordinates": [ 6.034586726, 49.62196331 ] } },
{ "type": "Feature", "properties": { "name": "Lycée Michel Lucius", "level": "lycee", "address": "157, avenue Pasteur, L-2311 Luxembourg" }, "geometry": { "type": "Point", "coordinates": [ 6.113750454, 49.624829693 ] } },
{ "type": "Feature", "properties": { "name": "Lycée Michel-Rodange Luxembourg", "level": "lycee", "address": "30, bd Pierre Dupong, L-1430 Luxembourg" }, "geometry": { "type": "Point", "coordinates": [ 6.110499069, 49.601583874 ] } },
{ "type": "Feature", "properties": { "name": "Lycée Nic Biever", "level": "lycee", "address": "28, rue du Parc, L-3542 Dudelange" }, "geometry": { "type": "Point", "coordinates": [ 6.089016566, 49.482706416 ] } },
{ "type": "Feature", "properties": { "name": "Lycée Privé Emile Metz", "level": "lycee", "address": "50, rue de Beggen, L-1220 Luxembourg" }, "geometry": { "type": "Point", "coordinates": [ 6.134849718, 49.634943134 ] } },
{ "type": "Feature", "properties": { "name": "Lycée technique agricole", "level": "lycee", "address": "72, avenue Salentiny, L-9080 Ettelbruck" }, "geometry": { "type": "Point", "coordinates": [ 6.099402353, 49.851008971 ] } },
{ "type": "Feature", "properties": { "name": "Lycée technique de Bonnevoie", "level": "lycee", "address": "119, rue du cimetière, L-1338 Luxembourg" }, "geometry": { "type": "Point", "coordinates": [ 6.142318127, 49.59099124 ] } },
{ "type": "Feature", "properties": { "name": "Lycée Technique du Centre", "level": "lycee", "address": "106, avenue Pasteur, L-2309 Luxembourg" }, "geometry": { "type": "Point", "coordinates": [ 6.115858327, 49.624179991 ] } },
{ "type": "Feature", "properties": { "name": "Lycée Technique Ettelbruck", "level": "lycee", "address": "71, avenue Salentiny, L-9080 Ettelbruck" }, "geometry": { "type": "Point", "coordinates": [ 6.098002921, 49.85007592 ] } },
{ "type": "Feature", "properties": { "name": "Lycée technique pour Professions de Santé", "level": "lycee", "address": "27, rue Barblé, L-1210 Luxembourg" }, "geometry": { "type": "Point", "coordinates": [ 6.100055537, 49.619211878 ] } },
{ "type": "Feature", "properties": { "name": "Lycée technique pour Professions Educatives et Sociales", "level": "lycee", "address": "45, Rue de la Gare, L-7590 Mersch" }, "geometry": { "type": "Point", "coordinates": [ 6.111967037, 49.756159866 ] } },
{ "type": "Feature", "properties": { "name": "Maacher Lycée", "level": "lycee", "address": "18, Rue de Muenschecker, L-6760 Grevenmacher" }, "geometry": { "type": "Point", "coordinates": [ 6.442428963, 49.682901635 ] } },
{ "type": "Feature", "properties": { "name": "Sportlycée", "level": "lycee", "address": "66, rue de Trèves, L-2630 Luxembourg" }, "geometry": { "type": "Point", "coordinates": [ 6.146213969, 49.610983599 ] } },
{ "type": "Feature", "properties": { "name": "Waldorfschoul", "level": "lycee", "address": "45, rue de l'Avenir, L-1147 Luxembourg" }, "geometry": { "type": "Point", "coordinates": [ 6.118491637, 49.626332144 ] } },
{ "type": "Feature", "properties": { "name": "St. Georges", "level": "lycee", "address": "11, rue des peupliers, L-2328 Luxembourg" }, "geometry": { "type": "Point", "coordinates": [ 6.164293448, 49.610975859 ] } },
{ "type": "Feature", "properties": { "name": "International School Luxembourg", "level": "lycee", "address": "36, boulevard Pierre Dupong, L-1430 Luxembourg" }, "geometry": { "type": "Point", "coordinates": [ 6.107872056, 49.600793568 ] } },
{ "type": "Feature", "properties": { "name": "Europaschoul 1", "level": "lycee", "address": "23, boulevard Konrad Adenauer, L-1115 Luxembourg" }, "geometry": { "type": "Point", "coordinates": [ 6.153018273, 49.627438184 ] } },
{ "type": "Feature", "properties": { "name": "Europaschoul 2", "level": "lycee", "address": "6, rue Gaston Thorn, L-8268 Mamer" }, "geometry": { "type": "Point", "coordinates": [ 6.03539659, 49.616989791 ] } },
{ "type": "Feature", "properties": { "name": "Lycée Vauban", "level": "lycee", "address": "1-3, rue Albert Einstein, L-1484 Luxembourg" }, "geometry": { "type": "Point", "coordinates": [ 6.125705011, 49.583966971 ] } }
]
}
